OBJECT_NAME,OBJECT_ID,EPOCH,MEAN_MOTION,ECCENTRICITY,INCLINATION,RA_OF_ASC_NODE,ARG_OF_PERICENTER,MEAN_ANOMALY,EPHEMERIS_TYPE,CLASSIFICATION_TYPE,NORAD_CAT_ID,ELEMENT_SET_NO,REV_AT_EPOCH,BSTAR,MEAN_MOTION_DOT,MEAN_MOTION_DDOT
LEMUR-2-STARLIGHT,2025-276DY,2026-07-06T17:26:24.664704,14.99285417,.0014691,97.5223,257.6975,71.9073,288.3749,0,U,66783,999,3312,.4374E-3,.5295E-4,0
LEMUR-2-TARTIFLETTE,2025-276DZ,2026-07-06T17:24:00.207360,14.99277169,.001373,97.5225,257.7037,79.6577,280.6194,0,U,66784,999,3312,.34914E-3,.4212E-4,0
LEMUR-2-VUKASIN,2025-276EA,2026-07-06T18:27:11.841120,15.00493817,.0004393,97.5243,258.0885,79.4597,280.7122,0,U,66785,999,3308,.32922E-3,.4091E-4,0
LEMUR-2-HOTSPUR-TOM,2025-276EB,2026-07-06T17:15:10.376640,14.99183448,.0013989,97.5216,257.6747,70.9230,289.3507,0,U,66786,999,3305,.37145E-3,.4474E-4,0
LEMUR-2-MYRA,2025-276EC,2026-07-06T17:37:24.269088,15.00524052,.0018461,97.5208,257.9763,79.9717,280.3589,0,U,66787,999,3314,.38707E-3,.484E-4,0
LEMUR-2 FIKRETDENGIZ,2026-004A,2026-07-05T22:59:45.997728,14.88472307,.0010567,97.8024,185.2292,81.5698,278.6716,0,U,67363,999,2607,.53037E-3,.4876E-4,0
TWILIGHT-1 OBJECT B,2026-004B,2026-07-06T17:32:13.914240,14.87773913,.0010157,97.8067,185.9957,70.0556,290.1754,0,U,67364,999,2619,.21511E-3,.191E-4,0
LEMUR-2-MARIO-SOUSA,2026-004C,2026-07-06T11:26:56.436576,14.88679800,.00102184,97.7998,185.7354,81.3584,278.8791,0,U,67365,999,2616,.47199034E-3,.4355E-4,0
LEMUR-2-SONNENBLUME,2026-004E,2026-07-06T11:28:48.751392,14.88423791,.00097451,97.7993,185.7134,82.4268,277.8056,0,U,67367,999,2616,.33971274E-3,.3099E-4,0
LEMUR-2-WOBLER,2026-004F,2026-07-06T17:42:34.123680,14.88658210,.0009922,97.8045,186.1106,73.5880,286.6427,0,U,67368,999,2620,.39153E-3,.3601E-4,0
LEMUR-2-GRAM-E-SUE,2026-004H,2026-07-06T19:07:11.867232,14.88563158,.000884,97.7979,186.0431,83.6049,276.6174,0,U,67370,999,2621,.25123E-3,.2285E-4,0
LEMUR-2-KATIE,2026-004AA,2026-07-06T19:55:17.481216,14.90202649,.0004196,97.8046,186.5994,52.7515,307.4085,0,U,67387,999,2623,.36075E-3,.3442E-4,0
LEMUR-2-HCS-BAZUS,2026-004AB,2026-07-06T13:26:20.048064,14.90231624,.0003631,97.8031,186.3120,53.0769,307.0781,0,U,67388,999,2619,.26968E-3,.256E-4,0
